{
  "norad_id": 69034,
  "name": "STARLINK-37611",
  "history": [
    {
      "epoch": "2026-05-12T20:00:01.999008Z",
      "apogee_km": 307.5272066748821,
      "perigee_km": 305.8252532265369,
      "latitude_deg": -21.788101463710213,
      "longitude_deg": 179.2484324057485,
      "height_km": 315.5332675791675,
      "semi_major_axis_km": 6684.81322995071,
      "eccentricity": 0.0001273,
      "inclination_deg": 97.2887,
      "raan_deg": 346.9449,
      "arg_perigee_deg": 98.7141,
      "mean_anomaly_deg": 239.5736,
      "mean_motion_rev_day": 15.88432796
    }
  ]
}