STARLINK-37611          
1 69034U 26101K   26132.83335648 -.02020761  00000+0 -84418-2 0  9992
2 69034  97.2887 346.9449 0001273  98.7141 239.5736 15.88432796  2287
